IRIDIUM 36 [-]          
1 24967U 97056C   23291.66893215  .00001109  00000+0  37191-3 0  9996
2 24967  86.3951  68.0496 0002090  96.5594 263.5841 14.36458342364972
IRIDIUM 39 [-]          
1 25042U 97069D   23291.74673253  .00001406  00000+0  37703-3 0  9991
2 25042  86.3872 111.2965 0018741 166.6781 193.4921 14.47422538361043
IRIDIUM 38 [-]          
1 25043U 97069E   23291.82294962  .00000777  00000+0  25626-3 0  9998
2 25043  86.3936 128.5028 0001493  14.6520 345.4720 14.36920386358702
IRIDIUM 42 [-]          
1 25077U 97077A   23291.79858293  .00000691  00000+0  23494-3 0  9999
2 25077  86.3949 133.9419 0001596  72.8497 287.2874 14.35233523354045
IRIDIUM 44 [-]          
1 25078U 97077B   23291.77579984  .00000848  00000+0  26852-3 0  9990
2 25078  86.3915 117.5082 0001483 149.0224 211.1062 14.39023610356318
IRIDIUM 45 [-]          
1 25104U 97082A   23291.82780716  .00013324  00000+0  85206-3 0  9990
2 25104  86.3771 335.3828 0180194  37.1505 324.2035 14.95957943360545
IRIDIUM 24 [-]          
1 25105U 97082B   23291.88373871  .00000909  00000+0  27787-3 0  9992
2 25105  86.3928 337.4750 0009362 285.1576  74.8587 14.40783687355734
IRIDIUM 51 [-]          
1 25262U 98018A   23291.18090172  .00011180  00000+0  61900-3 0  9997
2 25262  86.3965 346.2017 0164189 353.9925   5.9333 15.02810625354829
